{
  "type": "FeatureCollection",
  "features": [
    {
      "type": "Feature",
      "properties": {
        "norad_id": 66582,
        "name": "STARLINK-35746",
        "group": "last-30-days",
        "lat": NaN,
        "lon": NaN,
        "alt_km": NaN,
        "timestamp": "2025-12-01T02:46:51.397195+00:00",
        "meta": {
          "OBJECT_NAME": "STARLINK-35746",
          "OBJECT_ID": "2025-268AB",
          "EPOCH": "2025-11-30T20:00:03.000384",
          "MEAN_MOTION": 15.82989829,
          "ECCENTRICITY": 0.0001821,
          "INCLINATION": 42.9967,
          "RA_OF_ASC_NODE": 191.9905,
          "ARG_OF_PERICENTER": 269.0841,
          "MEAN_ANOMALY": 135.2388,
          "EPHEMERIS_TYPE": 0,
          "CLASSIFICATION_TYPE": "U",
          "NORAD_CAT_ID": 66582,
          "ELEMENT_SET_NO": 999,
          "REV_AT_EPOCH": 275,
          "BSTAR": -0.0092547,
          "MEAN_MOTION_DOT": -0.01797098,
          "MEAN_MOTION_DDOT": 0
        }
      },
      "geometry": {
        "type": "Point",
        "coordinates": [
          NaN,
          NaN
        ]
      }
    },
    {
      "type": "Feature",
      "properties": {
        "norad_id": 66583,
        "name": "STARLINK-35941",
        "group": "last-30-days",
        "lat": NaN,
        "lon": NaN,
        "alt_km": NaN,
        "timestamp": "2025-12-01T02:46:51.397212+00:00",
        "meta": {
          "OBJECT_NAME": "STARLINK-35941",
          "OBJECT_ID": "2025-268AC",
          "EPOCH": "2025-11-30T20:00:03.000384",
          "MEAN_MOTION": 15.82989201,
          "ECCENTRICITY": 0.0001648,
          "INCLINATION": 42.9964,
          "RA_OF_ASC_NODE": 191.9848,
          "ARG_OF_PERICENTER": 268.3504,
          "MEAN_ANOMALY": 138.1505,
          "EPHEMERIS_TYPE": 0,
          "CLASSIFICATION_TYPE": "U",
          "NORAD_CAT_ID": 66583,
          "ELEMENT_SET_NO": 999,
          "REV_AT_EPOCH": 275,
          "BSTAR": -0.0093559,
          "MEAN_MOTION_DOT": -0.01814132,
          "MEAN_MOTION_DDOT": 0
        }
      },
      "geometry": {
        "type": "Point",
        "coordinates": [
          NaN,
          NaN
        ]
      }
    },
    {
      "type": "Feature",
      "properties": {
        "norad_id": 66584,
        "name": "STARLINK-35939",
        "group": "last-30-days",
        "lat": NaN,
        "lon": NaN,
        "alt_km": NaN,
        "timestamp": "2025-12-01T02:46:51.397228+00:00",
        "meta": {
          "OBJECT_NAME": "STARLINK-35939",
          "OBJECT_ID": "2025-268AD",
          "EPOCH": "2025-11-30T20:00:03.000384",
          "MEAN_MOTION": 15.82994413,
          "ECCENTRICITY": 0.0001622,
          "INCLINATION": 42.997,
          "RA_OF_ASC_NODE": 191.9804,
          "ARG_OF_PERICENTER": 272.2584,
          "MEAN_ANOMALY": 136.2051,
          "EPHEMERIS_TYPE": 0,
          "CLASSIFICATION_TYPE": "U",
          "NORAD_CAT_ID": 66584,
          "ELEMENT_SET_NO": 999,
          "REV_AT_EPOCH": 275,
          "BSTAR": -0.0093354,
          "MEAN_MOTION_DOT": -0.01811022,
          "MEAN_MOTION_DDOT": 0
        }
      },
      "geometry": {
        "type": "Point",
        "coordinates": [
          NaN,
          NaN
        ]
      }
    },
    {
      "type": "Feature",
      "properties": {
        "norad_id": 66585,
        "name": "STARLINK-35963",
        "group": "last-30-days",
        "lat": NaN,
        "lon": NaN,
        "alt_km": NaN,
        "timestamp": "2025-12-01T02:46:51.397244+00:00",
        "meta": {
          "OBJECT_NAME": "STARLINK-35963",
          "OBJECT_ID": "2025-268AE",
          "EPOCH": "2025-11-30T20:00:03.000384",
          "MEAN_MOTION": 15.8299213,
          "ECCENTRICITY": 0.0001629,
          "INCLINATION": 42.9968,
          "RA_OF_ASC_NODE": 191.9746,
          "ARG_OF_PERICENTER": 270.2117,
          "MEAN_ANOMALY": 140.3951,
          "EPHEMERIS_TYPE": 0,
          "CLASSIFICATION_TYPE": "U",
          "NORAD_CAT_ID": 66585,
          "ELEMENT_SET_NO": 999,
          "REV_AT_EPOCH": 275,
          "BSTAR": -0.0093988,
          "MEAN_MOTION_DOT": -0.01821647,
          "MEAN_MOTION_DDOT": 0
        }
      },
      "geometry": {
        "type": "Point",
        "coordinates": [
          NaN,
          NaN
        ]
      }
    },
    {
      "type": "Feature",
      "properties": {
        "norad_id": 66586,
        "name": "TJS-21",
        "group": "last-30-days",
        "lat": NaN,
        "lon": NaN,
        "alt_km": NaN,
        "timestamp": "2025-12-01T02:46:51.397266+00:00",
        "meta": {
          "OBJECT_NAME": "TJS-21",
          "OBJECT_ID": "2025-269A",
          "EPOCH": "2025-11-22T00:38:56.616288",
          "MEAN_MOTION": 2.0099221,
          "ECCENTRICITY": 0.75179873,
          "INCLINATION": 51.0366,
          "RA_OF_ASC_NODE": 174.7096,
          "ARG_OF_PERICENTER": 225.0489,
          "MEAN_ANOMALY": 41.6572,
          "EPHEMERIS_TYPE": 0,
          "CLASSIFICATION_TYPE": "U",
          "NORAD_CAT_ID": 66586,
          "ELEMENT_SET_NO": 999,
          "REV_AT_EPOCH": 2,
          "BSTAR": 0.00053569978,
          "MEAN_MOTION_DOT": 3.197e-05,
          "MEAN_MOTION_DDOT": 0
        }
      },
      "geometry": {
        "type": "Point",
        "coordinates": [
          NaN,
          NaN
        ]
      }
    },
    {
      "type": "Feature",
      "properties": {
        "norad_id": 66587,
        "name": "CZ-3B R/B",
        "group": "last-30-days",
        "lat": NaN,
        "lon": NaN,
        "alt_km": NaN,
        "timestamp": "2025-12-01T02:46:51.397295+00:00",
        "meta": {
          "OBJECT_NAME": "CZ-3B R/B",
          "OBJECT_ID": "2025-269B",
          "EPOCH": "2025-11-23T12:20:01.405824",
          "MEAN_MOTION": 2.01516013,
          "ECCENTRICITY": 0.75253415,
          "INCLINATION": 51.3768,
          "RA_OF_ASC_NODE": 174.0599,
          "ARG_OF_PERICENTER": 225.2938,
          "MEAN_ANOMALY": 41.2116,
          "EPHEMERIS_TYPE": 0,
          "CLASSIFICATION_TYPE": "U",
          "NORAD_CAT_ID": 66587,
          "ELEMENT_SET_NO": 999,
          "REV_AT_EPOCH": 6,
          "BSTAR": 0.00049596604,
          "MEAN_MOTION_DOT": 0.0001032,
          "MEAN_MOTION_DDOT": -9.13844e-07
        }
      },
      "geometry": {
        "type": "Point",
        "coordinates": [
          NaN,
          NaN
        ]
      }
    },
    {
      "type": "Feature",
      "properties": {
        "norad_id": 66645,
        "name": "SHENZHOU-22",
        "group": "last-30-days",
        "lat": NaN,
        "lon": NaN,
        "alt_km": NaN,
        "timestamp": "2025-12-01T02:46:51.397317+00:00",
        "meta": {
          "OBJECT_NAME": "SHENZHOU-22",
          "OBJECT_ID": "2025-272A",
          "EPOCH": "2025-11-30T14:32:09.181248",
          "MEAN_MOTION": 15.58433763,
          "ECCENTRICITY": 0.00104995,
          "INCLINATION": 41.4666,
          "RA_OF_ASC_NODE": 90.3296,
          "ARG_OF_PERICENTER": 300.6819,
          "MEAN_ANOMALY": 59.2984,
          "EPHEMERIS_TYPE": 0,
          "CLASSIFICATION_TYPE": "U",
          "NORAD_CAT_ID": 66645,
          "ELEMENT_SET_NO": 999,
          "REV_AT_EPOCH": 26199,
          "BSTAR": 0.00021218928,
          "MEAN_MOTION_DOT": 0.00016368,
          "MEAN_MOTION_DDOT": 0
        }
      },
      "geometry": {
        "type": "Point",
        "coordinates": [
          NaN,
          NaN
        ]
      }
    },
    {
      "type": "Feature",
      "properties": {
        "norad_id": 66646,
        "name": "CZ-2F R/B",
        "group": "last-30-days",
        "lat": NaN,
        "lon": NaN,
        "alt_km": NaN,
        "timestamp": "2025-12-01T02:46:51.397334+00:00",
        "meta": {
          "OBJECT_NAME": "CZ-2F R/B",
          "OBJECT_ID": "2025-272B",
          "EPOCH": "2025-11-26T11:17:54.506400",
          "MEAN_MOTION": 16.01945612,
          "ECCENTRICITY": 0.01210796,
          "INCLINATION": 41.4431,
          "RA_OF_ASC_NODE": 114.9009,
          "ARG_OF_PERICENTER": 133.7676,
          "MEAN_ANOMALY": 227.3272,
          "EPHEMERIS_TYPE": 0,
          "CLASSIFICATION_TYPE": "U",
          "NORAD_CAT_ID": 66646,
          "ELEMENT_SET_NO": 999,
          "REV_AT_EPOCH": 21,
          "BSTAR": 0.00029319366,
          "MEAN_MOTION_DOT": 0.00449059,
          "MEAN_MOTION_DDOT": 7.567612e-06
        }
      },
      "geometry": {
        "type": "Point",
        "coordinates": [
          NaN,
          NaN
        ]
      }
    },
    {
      "type": "Feature",
      "properties": {
        "norad_id": 66647,
        "name": "COSMOS 2597 (RODNIK-S 22)",
        "group": "last-30-days",
        "lat": NaN,
        "lon": NaN,
        "alt_km": NaN,
        "timestamp": "2025-12-01T02:46:51.397351+00:00",
        "meta": {
          "OBJECT_NAME": "COSMOS 2597 (RODNIK-S 22)",
          "OBJECT_ID": "2025-273A",
          "EPOCH": "2025-11-30T20:57:41.205312",
          "MEAN_MOTION": 12.41951053,
          "ECCENTRICITY": 0.0008203,
          "INCLINATION": 82.4979,
          "RA_OF_ASC_NODE": 293.8187,
          "ARG_OF_PERICENTER": 316.9179,
          "MEAN_ANOMALY": 43.1258,
          "EPHEMERIS_TYPE": 0,
          "CLASSIFICATION_TYPE": "U",
          "NORAD_CAT_ID": 66647,
          "ELEMENT_SET_NO": 999,
          "REV_AT_EPOCH": 66,
          "BSTAR": -0.00011977,
          "MEAN_MOTION_DOT": -7e-08,
          "MEAN_MOTION_DDOT": 0
        }
      },
      "geometry": {
        "type": "Point",
        "coordinates": [
          NaN,
          NaN
        ]
      }
    }
  ]
}